[{"OBJECT_NAME":"STARLINK-5933","OBJECT_ID":"2023-037AZ","EPOCH":"2026-03-09T22:41:03.525216","MEAN_MOTION":14.98330477,"ECCENTRICITY":0.00027263,"INCLINATION":69.998,"RA_OF_ASC_NODE":263.7225,"ARG_OF_PERICENTER":270.5332,"MEAN_ANOMALY":89.5515,"EPHEMERIS_TYPE":0,"CLASSIFICATION_TYPE":"U","NORAD_CAT_ID":55961,"ELEMENT_SET_NO":999,"REV_AT_EPOCH":16451,"BSTAR":1.9695852e-5,"MEAN_MOTION_DOT":1.42e-6,"MEAN_MOTION_DDOT":0},{"OBJECT_NAME":"LEMUR-2-DELOITTE-1","OBJECT_ID":"2025-052BB","EPOCH":"2026-03-09T22:32:58.708896","MEAN_MOTION":14.9679712,"ECCENTRICITY":0.00030112,"INCLINATION":97.7035,"RA_OF_ASC_NODE":323.209,"ARG_OF_PERICENTER":78.3841,"MEAN_ANOMALY":281.7719,"EPHEMERIS_TYPE":0,"CLASSIFICATION_TYPE":"U","NORAD_CAT_ID":63259,"ELEMENT_SET_NO":999,"REV_AT_EPOCH":5384,"BSTAR":0.00044206323,"MEAN_MOTION_DOT":5.004e-5,"MEAN_MOTION_DDOT":0}]
