STARLINK-5933           
1 55961U 23037AZ  26068.94517969  .00000142  00000+0  19696-4 0  9994
2 55961  69.9980 263.7225 0002726 270.5332  89.5515 14.98330477164511
LEMUR-2-DELOITTE-1      
1 63259U 25052BB  26068.93956839  .00005004  00000+0  44206-3 0  9990
2 63259  97.7035 323.2090 0003011  78.3841 281.7719 14.96797120 53844
